ONEWEB-0674             
1 55833U 23029AP  25175.57922100  .00000261  00000+0  66913-3 0  9992
2 55833  87.9029   0.8798 0001478 107.8320 252.2971 13.14502300112432
ONEWEB-0675             
1 55834U 23029AQ  25175.57941911  .00000027  00000+0  34780-4 0  9992
2 55834  87.9217  16.0857 0002033  79.7765 280.3597 13.19726988111750
ONEWEB-0720             
1 55835U 23029AR  25175.57153417  .00000104  00000+0  22827-3 0  9993
2 55835  87.9216  16.0840 0002106  97.9735 262.1637 13.19725231112363
ONEWEB-0537             
1 56046U 23043A   25175.70490082  .00000032  00000+0  48845-4 0  9990
2 56046  87.9052 300.0091 0001893  93.2341 266.9006 13.16594279111920
ONEWEB-0538             
1 56047U 23043B   25175.77456143  .00000045  00000+0  84068-4 0  9999
2 56047  87.9047 300.0140 0002160  97.1477 262.9900 13.16594232111941
ONEWEB-0546             
1 56048U 23043C   25175.76188847 -.00000086  00000+0 -25826-3 0  9995
2 56048  87.9056 299.9908 0001687  77.9144 282.2176 13.16593619111937
ONEWEB-0547             
1 56049U 23043D   25175.81101916  .00000012  00000+0 -20626-5 0  9997
2 56049  87.9254 315.2565 0002074  98.3796 261.7573 13.21826978111015
ONEWEB-0548             
1 56050U 23043E   25175.71122967 -.00000095  00000+0 -28179-3 0  9998
2 56050  87.9041 300.0363 0001587 114.1792 245.9505 13.16594194111925
